COMMENT,ORIGINATOR,NORAD_CAT_ID,OBJECT_NAME,OBJECT_TYPE,CLASSIFICATION_TYPE,INTLDES,EPOCH,EPOCH_MICROSECONDS,MEAN_MOTION,ECCENTRICITY,INCLINATION,RA_OF_ASC_NODE,ARG_OF_PERICENTER,MEAN_ANOMALY,EPHEMERIS_TYPE,ELEMENT_SET_NO,REV_AT_EPOCH,BSTAR,MEAN_MOTION_DOT,MEAN_MOTION_DDOT,FILE,TLE_LINE0,TLE_LINE1,TLE_LINE2,OBJECT_ID,OBJECT_NUMBER,SEMIMAJOR_AXIS,PERIOD,APOGEE,PERIGEE,DECAYED
"GENERATED VIA SPACETRACK.ORG API","18 SPCS","48895","SPACEBEE-108","PAYLOAD","U","21059S","2021-12-21 07:58:05","401344","15.12895797","0.0009621","97.536","121.6718","9.4861","350.655","0","999","2698","0.00034311","0.00005981","0","3246489","0 SPACEBEE-108","1 48895U 21059S   21355.33200696  .00005981  00000-0  34311-3 0  9994","2 48895  97.5360 121.6718 0009621   9.4861 350.6550 15.12895797 26981","2021-059S","48895","6905.511","95.182","534.020","520.732","0"
"GENERATED VIA SPACETRACK.ORG API","18 SPCS","48895","SPACEBEE-108","PAYLOAD","U","21059S","2021-12-21 22:15:15","918912","15.12901651","0.0009564","97.5359","122.2599","7.2558","352.881","0","999","2707","0.00031461","0.00005479","0","3246784","0 SPACEBEE-108","1 48895U 21059S   21355.92726758  .00005479  00000-0  31461-3 0  9996","2 48895  97.5359 122.2599 0009564   7.2558 352.8810 15.12901651 27079","2021-059S","48895","6905.493","95.181","533.963","520.754","0"
"GENERATED VIA SPACETRACK.ORG API","18 SPCS","48895","SPACEBEE-108","PAYLOAD","U","21059S","2021-12-22 07:46:42","791232","15.12906926","0.0009529","97.5359","122.652","5.8025","354.3314","0","999","2713","0.00033191","0.00005785","0","3247297","0 SPACEBEE-108","1 48895U 21059S   21356.32410638  .00005785  00000-0  33191-3 0  9990","2 48895  97.5359 122.6520 0009529   5.8025 354.3314 15.12906926 27134","2021-059S","48895","6905.477","95.181","533.923","520.762","0"
"GENERATED VIA SPACETRACK.ORG API","18 SPCS","48895","SPACEBEE-108","PAYLOAD","U","21059S","2021-12-22 14:07:40","630080","15.12911098","0.0009514","97.5358","122.9134","4.8278","355.3042","0","999","2717","0.00036548","0.00006378","0","3247523","0 SPACEBEE-108","1 48895U 21059S   21356.58866470  .00006378  00000-0  36548-3 0  9995","2 48895  97.5358 122.9134 0009514   4.8278 355.3042 15.12911098 27179","2021-059S","48895","6905.465","95.181","533.899","520.760","0"
"GENERATED VIA SPACETRACK.ORG API","18 SPCS","48895","SPACEBEE-108","PAYLOAD","U","21059S","2021-12-22 22:03:52","881120","15.12914221","0.0009489","97.5358","123.24","3.4702","356.6593","0","999","2722","0.00034179","0.00005961","0","3248121","0 SPACEBEE-108","1 48895U 21059S   21356.91936205  .00005961  00000-0  34179-3 0  9991","2 48895  97.5358 123.2400 0009489   3.4702 356.6593 15.12914221 27229","2021-059S","48895","6905.455","95.181","533.873","520.767","0"
"GENERATED VIA SPACETRACK.ORG API","18 SPCS","48895","SPACEBEE-108","PAYLOAD","U","21059S","2021-12-23 07:35:19","469184","15.12920654","0.0009469","97.5358","123.6321","1.9764","358.1503","0","999","2728","0.00038937","0.00006802","0","3248538","0 SPACEBEE-108","1 48895U 21059S   21357.31619756  .00006802  00000-0  38937-3 0  9996","2 48895  97.5358 123.6321 0009469   1.9764 358.1503 15.12920654 27285","2021-059S","48895","6905.436","95.180","533.839","520.762","0"
"GENERATED VIA SPACETRACK.ORG API","18 SPCS","48895","SPACEBEE-108","PAYLOAD","U","21059S","2021-12-23 18:42:00","353664","15.129265","0.000944","97.5357","124.0895","0.307","359.8165","0","999","2735","0.00039688","0.00006935","0","3248712","0 SPACEBEE-108","1 48895U 21059S   21357.77917076  .00006935  00000-0  39688-3 0  9993","2 48895  97.5357 124.0895 0009440   0.3070 359.8165 15.12926500 27353","2021-059S","48895","6905.418","95.180","533.801","520.764","0"
"GENERATED VIA SPACETRACK.ORG API","18 SPCS","48895","SPACEBEE-108","PAYLOAD","U","21059S","2021-12-23 21:52:29","108064","15.12927854","0.000943","97.5357","124.2202","359.9018","0.221","0","999","2737","0.0003722","0.000065","0","3249421","0 SPACEBEE-108","1 48895U 21059S   21357.91144801  .00006500  00000-0  37220-3 0  9995","2 48895  97.5357 124.2202 0009430 359.9018   0.2210 15.12927854 27374","2021-059S","48895","6905.414","95.180","533.790","520.767","0"
"GENERATED VIA SPACETRACK.ORG API","18 SPCS","48895","SPACEBEE-108","PAYLOAD","U","21059S","2021-12-24 13:44:52","866240","15.1293701","0.0009372","97.5357","124.8736","357.8035","2.3153","0","999","2747","0.00039033","0.00006821","0","3250080","0 SPACEBEE-108","1 48895U 21059S   21358.57283410  .00006821  00000-0  39033-3 0  9998","2 48895  97.5357 124.8736 0009372 357.8035   2.3153 15.12937010 27478","2021-059S","48895","6905.386","95.179","533.722","520.779","0"
"GENERATED VIA SPACETRACK.ORG API","18 SPCS","48895","SPACEBEE-108","PAYLOAD","U","21059S","2021-12-24 20:05:50","273952","15.12940457","0.0009357","97.5357","125.135","356.9238","3.1934","0","999","2751","0.00038264","0.00006686","0","3250215","0 SPACEBEE-108","1 48895U 21059S   21358.83738743  .00006686  00000-0  38264-3 0  9995","2 48895  97.5357 125.1350 0009357 356.9238   3.1934 15.12940457 27512","2021-059S","48895","6905.375","95.179","533.702","520.779","0"
"GENERATED VIA SPACETRACK.ORG API","18 SPCS","48895","SPACEBEE-108","PAYLOAD","U","21059S","2021-12-24 21:41:04","619616","15.12939825","0.0009348","97.5357","125.2003","356.7413","3.3755","0","999","2752","0.00033684","0.00005877","0","3250462","0 SPACEBEE-108","1 48895U 21059S   21358.90352569  .00005877  00000-0  33684-3 0  9993","2 48895  97.5357 125.2003 0009348 356.7413   3.3755 15.12939825 27522","2021-059S","48895","6905.377","95.179","533.697","520.787","0"
"GENERATED VIA SPACETRACK.ORG API","18 SPCS","48895","SPACEBEE-108","PAYLOAD","U","21059S","2021-12-25 07:12:30","614976","15.12945911","0.0009317","97.5357","125.5924","355.4742","4.6403","0","999","2758","0.000362","0.00006323","0","3250775","0 SPACEBEE-108","1 48895U 21059S   21359.30035434  .00006323  00000-0  36200-3 0  9991","2 48895  97.5357 125.5924 0009317 355.4742   4.6403 15.12945911 27587","2021-059S","48895","6905.359","95.179","533.657","520.790","0"
"GENERATED VIA SPACETRACK.ORG API","18 SPCS","48895","SPACEBEE-108","PAYLOAD","U","21059S","2021-12-25 21:29:39","403680","15.12952991","0.0009258","97.5356","126.1806","353.6101","6.501","0","999","2767","0.00034541","0.00006031","0","3250974","0 SPACEBEE-108","1 48895U 21059S   21359.89559495  .00006031  00000-0  34541-3 0  9995","2 48895  97.5356 126.1806 0009258 353.6101   6.5010 15.12952991 27676","2021-059S","48895","6905.337","95.178","533.595","520.809","0"
"GENERATED VIA SPACETRACK.ORG API","18 SPCS","48895","SPACEBEE-108","PAYLOAD","U","21059S","2021-12-26 08:36:19","399968","15.12958455","0.0009223","97.5356","126.638","352.156","7.9526","0","999","2774","0.00033298","0.00005812","0","3251311","0 SPACEBEE-108","1 48895U 21059S   21360.35855787  .00005812  00000-0  33298-3 0  9995","2 48895  97.5356 126.6380 0009223 352.1560   7.9526 15.12958455 27749","2021-059S","48895","6905.320","95.178","533.554","520.817","0"
"GENERATED VIA SPACETRACK.ORG API","18 SPCS","48895","SPACEBEE-108","PAYLOAD","U","21059S","2021-12-26 08:36:19","399968","15.12958455","0.0009223","97.5356","126.638","352.156","7.9526","0","999","2774","0.00033298","0.00005812","0","3251546","0 SPACEBEE-108","1 48895U 21059S   21360.35855787  .00005812  00000-0  33298-3 0  9995","2 48895  97.5356 126.6380 0009223 352.1560   7.9526 15.12958455 27749","2021-059S","48895","6905.320","95.178","533.554","520.817","0"
"GENERATED VIA SPACETRACK.ORG API","18 SPCS","48895","SPACEBEE-108","PAYLOAD","U","21059S","2021-12-26 21:18:13","526784","15.12962937","0.000919","97.5355","127.1608","350.2688","9.8363","0","999","2782","0.00028077","0.00004891","0","3251846","0 SPACEBEE-108","1 48895U 21059S   21360.88765656  .00004891  00000-0  28077-3 0  9993","2 48895  97.5355 127.1608 0009190 350.2688   9.8363 15.12962937 27829","2021-059S","48895","6905.307","95.177","533.518","520.826","0"
"GENERATED VIA SPACETRACK.ORG API","18 SPCS","48895","SPACEBEE-108","PAYLOAD","U","21059S","2021-12-27 08:24:53","246592","15.12969","0.0009137","97.5355","127.6183","348.8276","11.2751","0","999","2789","0.00030288","0.00005282","0","3252683","0 SPACEBEE-108","1 48895U 21059S   21361.35061628  .00005282  00000-0  30288-3 0  9996","2 48895  97.5355 127.6183 0009137 348.8276  11.2751 15.12969000 27892","2021-059S","48895","6905.288","95.177","533.463","520.844","0"
"GENERATED VIA SPACETRACK.ORG API","18 SPCS","48895","SPACEBEE-108","PAYLOAD","U","21059S","2021-12-27 19:31:32","830752","15.12974173","0.0009092","97.5354","128.0758","347.227","12.8729","0","999","2796","0.0003059","0.00005336","0","3252716","0 SPACEBEE-108","1 48895U 21059S   21361.81357443  .00005336  00000-0  30590-3 0  9996","2 48895  97.5354 128.0758 0009092 347.2270  12.8729 15.12974173 27968","2021-059S","48895","6905.273","95.177","533.416","520.859","0"
"GENERATED VIA SPACETRACK.ORG API","18 SPCS","48895","SPACEBEE-108","PAYLOAD","U","21059S","2021-12-27 21:06:47","34720","15.12976021","0.0009085","97.5354","128.1411","347.0092","13.0903","0","999","2797","0.00033538","0.00005857","0","3253114","0 SPACEBEE-108","1 48895U 21059S   21361.87971105  .00005857  00000-0  33538-3 0  9992","2 48895  97.5354 128.1411 0009085 347.0092  13.0903 15.12976021 27979","2021-059S","48895","6905.267","95.177","533.405","520.859","0"
"GENERATED VIA SPACETRACK.ORG API","18 SPCS","48895","SPACEBEE-108","PAYLOAD","U","21059S","2021-12-28 08:13:26","478912","15.12979331","0.0009039","97.5354","128.5986","345.2973","14.7993","0","999","2804","0.000287","0.00005003","0","3253660","0 SPACEBEE-108","1 48895U 21059S   21362.34266758  .00005003  00000-0  28700-3 0  9994","2 48895  97.5354 128.5986 0009039 345.2973  14.7993 15.12979331 28040","2021-059S","48895","6905.257","95.176","533.364","520.880","0"
